OBJECT_NAME,OBJECT_ID,EPOCH,MEAN_MOTION,ECCENTRICITY,INCLINATION,RA_OF_ASC_NODE,ARG_OF_PERICENTER,MEAN_ANOMALY,EPHEMERIS_TYPE,CLASSIFICATION_TYPE,NORAD_CAT_ID,ELEMENT_SET_NO,REV_AT_EPOCH,BSTAR,MEAN_MOTION_DOT,MEAN_MOTION_DDOT
GALAXY 33 (G-33),2022-128A,2026-06-19T13:00:02.408256,1.00270256,.00017031,0.0196,49.2747,35.1210,245.3737,0,U,54026,999,1376,0,.73E-6,0
GALAXY 34 (G-34),2022-128B,2026-06-18T15:26:01.500288,1.00274211,.0001513,0.0104,30.3042,67.6466,271.4326,0,U,54027,999,1392,0,.52E-6,0
ANGOSAT 2,2022-131A,2026-06-17T14:47:16.935072,1.00272126,.00007151,0.0320,83.0963,28.7776,38.8139,0,U,54033,999,1348,0,.13E-5,0
EUTELSAT HOTBIRD 13F,2022-134A,2026-06-19T12:56:06.902592,1.00271695,.00020897,0.0478,295.9100,61.3104,117.5805,0,U,54048,999,1340,0,.81E-6,0
LDPE-2,2022-144A,2026-06-19T10:03:38.437632,1.00533431,.00018562,5.6194,63.6372,100.3943,99.1318,0,U,54219,999,1186,0,.119E-5,0
EUTELSAT HOTBIRD 13G,2022-146A,2026-06-19T12:56:06.902592,1.00270916,.00019211,0.0469,225.3137,317.5041,291.9687,0,U,54225,999,749,0,.81E-6,0
ZHONGXING-19,2022-148A,2026-06-19T13:39:08.220096,1.00271718,.00024055,0.0163,33.5626,77.7169,164.4867,0,U,54230,999,1340,0,-.87E-6,0
GALAXY 31 (G-31),2022-153A,2026-06-19T11:34:38.788896,1.00271861,.00011346,0.0221,84.1069,356.0720,240.1743,0,U,54243,999,715,0,.7E-7,0
GALAXY 32 (G-32),2022-153B,2026-06-19T12:26:39.727104,1.00271630,.00020695,0.0139,28.6200,7.7601,327.0277,0,U,54244,999,1316,0,-.18E-5,0
EUTELSAT 10B,2022-157A,2026-06-18T21:31:30.375840,1.00265775,.0001155,0.0649,97.2261,12.1338,130.6241,0,U,54259,999,1304,0,.61E-6,0
GALAXY 35 (G-35),2022-170A,2026-06-19T12:26:02.287392,1.00271924,.00018476,0.0133,66.3445,18.4425,276.3511,0,U,54741,999,1291,0,-.168E-5,0
GALAXY 36 (G-36),2022-170B,2026-06-19T12:27:09.679392,1.00272164,.00025384,0.0040,322.4331,121.0454,282.0519,0,U,54742,999,1279,0,-.191E-5,0
METEOSAT-12 (MTG-I1),2022-170C,2026-06-19T06:01:50.682720,1.00273203,.00032649,0.7410,23.3589,71.0263,263.1532,0,U,54743,999,1299,0,-.14E-6,0
SHIJIAN-23 (SJ-23),2023-002A,2026-06-19T17:33:14.167872,1.00087198,.0003795,3.7250,78.2832,274.4825,324.9183,0,U,55131,999,1253,0,-.27E-5,0
APSTAR-6E,2023-005A,2026-06-18T16:35:31.820064,1.00270657,.0000913,0.0387,247.7467,297.0745,104.9723,0,U,55239,999,1870,0,-.324E-5,0
USA 342,2023-008A,2026-06-15T08:02:26.115936,1.00270392,.0000187,0.0090,64.0068,223.8693,120.1932,0,U,55263,999,1249,0,.142E-5,0
LDPE-3A,2023-008B,2026-06-19T11:34:38.788896,0.99145292,.00011722,2.3548,81.6371,58.9378,182.4523,0,U,55264,999,1183,0,.67E-6,0
ELEKTRO-L 4,2023-016A,2026-06-18T19:08:38.220576,1.00270891,.00008525,0.0750,160.5421,15.8590,183.5871,0,U,55506,999,1235,0,-.65E-6,0
AMAZONAS NEXUS,2023-017A,2026-06-18T12:37:55.191072,1.00275843,.00052207,0.0374,36.3998,35.4429,323.4129,0,U,55508,999,705,0,-.289E-5,0
ZHONGXING-26,2023-023A,2026-06-18T19:16:33.820608,1.00269988,.00033891,0.0695,70.8286,15.8874,234.5879,0,U,55686,999,1224,0,-.36E-5,0
LUCH-5X (OLYMP-K 2),2023-031A,2026-06-19T18:17:04.316064,1.00272255,.0000831,0.0305,68.8181,134.2967,41.1254,0,U,55841,999,1196,0,.27E-6,0
GAOFEN-13 02,2023-036A,2026-06-19T15:32:28.544640,1.00270147,.00040193,1.0209,1.5023,336.5172,311.2539,0,U,55912,999,1211,0,-.225E-5,0
SES-18,2023-038A,2026-06-18T14:54:41.006016,1.00271473,.00001214,0.0169,299.6964,324.7472,122.9796,0,U,55970,999,1211,0,-.107E-5,0
SES-19,2023-038B,2026-06-19T00:15:33.956352,1.00272311,.00014767,0.0144,27.2034,56.2664,52.7628,0,U,55971,999,1211,0,.81E-6,0
INTELSAT 40E (IS-40E),2023-052A,2026-06-18T14:59:46.046400,1.00271281,.00019438,0.0142,44.4220,81.4139,274.9633,0,U,56174,999,1183,0,-.18E-5,0
VIASAT-3 F1,2023-060A,2026-06-18T19:20:41.048160,1.00270504,.00010352,0.0244,348.3269,90.7537,29.1751,0,U,56370,999,1145,0,0,0
ARCTURUS,2023-060B,2026-06-19T13:13:12.764352,1.00272412,.00026142,2.7811,79.9248,52.3761,46.2798,0,U,56371,999,1148,0,-.7E-6,0
GS-1,2023-060C,2026-06-18T17:20:11.631840,1.00274169,.00037425,2.7297,79.8139,281.5832,255.0259,0,U,56372,999,755,0,-.232E-5,0
BEIDOU-3 G4,2023-066A,2026-06-19T15:15:08.229888,1.00273040,.0004426,0.4834,332.1808,179.3704,125.1354,0,U,56564,999,1141,0,-.287E-5,0
ARABSAT-7B (BADR-8),2023-075A,2026-06-18T23:18:42.734016,1.00269738,.00044209,0.0752,28.6288,356.1824,258.0734,0,U,56757,999,1113,0,.138E-5,0
NVS-01 (IRNSS-1J),2023-076A,2026-06-19T06:38:48.866208,1.00263943,.0003074,2.1602,244.2432,35.9095,216.4487,0,U,56759,999,1113,0,-.343E-5,0
